stk.v.4.3 

BEGIN Ephemeris 
 
NumberOfEphemerisPoints		146 
ScenarioEpoch	    2 Jan 2020 14: 5:55.013859272 
InterpolationMethod		Lagrange 
InterpolationOrder		5 
CentralBody				Earth 
CoordinateSystem			TEME 
CoordinateSystemEpoch	  2 Jan 2020 14: 5:55.013859272 
DistanceUnit			Kilometers 
 
EphemerisTimePosVel 
 
       0.00000000   -6892.52180329   -1933.86057546       0.04876078  0.136316511 -0.448400086  7.448938267
 END Ephemeris 
